OBJECT_NAME,OBJECT_ID,EPOCH,MEAN_MOTION,ECCENTRICITY,INCLINATION,RA_OF_ASC_NODE,ARG_OF_PERICENTER,MEAN_ANOMALY,EPHEMERIS_TYPE,CLASSIFICATION_TYPE,NORAD_CAT_ID,ELEMENT_SET_NO,REV_AT_EPOCH,BSTAR,MEAN_MOTION_DOT,MEAN_MOTION_DDOT
CENTISPACE-2 S1,2026-060A,2026-05-13T07:27:22.066848,14.73600156,.00130547,54.9792,178.2900,35.4256,324.7607,0,U,68350,999,762,.73861859E-4,.278E-5,0
CENTISPACE-2 S2,2026-060B,2026-05-13T04:16:03.607392,14.73273525,.00120765,54.9798,178.8578,32.9894,327.1855,0,U,68351,999,760,.73281686E-4,.271E-5,0
CENTISPACE-2 S3,2026-060C,2026-05-13T07:16:08.189184,14.73815227,.00121856,54.9782,178.2443,57.4541,302.7633,0,U,68352,999,762,.17656845E-4,-.91E-6,0
CENTISPACE-2 S4,2026-060D,2026-05-13T07:14:31.905024,14.73701351,.00122494,54.9807,178.2491,70.3256,289.9064,0,U,68353,999,762,.17346257E-4,-.93E-6,0
CENTISPACE-2 S5,2026-060E,2026-05-13T07:02:06.310176,14.74016572,.00141287,54.9738,178.1668,67.9362,292.3136,0,U,68354,999,762,.39177207E-4,.51E-6,0
CENTISPACE-2 S6,2026-060F,2026-05-13T07:19:02.761248,14.73596418,.0012027,54.9726,178.2303,59.4577,300.7607,0,U,68355,999,762,.17942195E-4,-.89E-6,0
CENTISPACE-2 S7,2026-060G,2026-05-13T07:00:29.614752,14.73987068,.00138284,54.9848,178.2129,64.7457,295.4974,0,U,68356,999,762,.13394747E-4,-.12E-5,0
CENTISPACE-2 S8,2026-060H,2026-05-13T06:56:09.315744,14.74290482,.00139288,54.9840,178.1929,63.2837,296.9586,0,U,68357,999,762,.11212403E-3,.54E-5,0
CENTISPACE-2 S9,2026-060J,2026-05-13T07:14:04.745184,14.73567647,.00124953,54.9784,178.2381,63.8475,296.3808,0,U,68358,999,762,.17669529E-4,-.91E-6,0
CENTISPACE-2 S10,2026-060K,2026-05-13T05:19:16.633920,14.74090325,.00151865,54.9769,178.4369,72.1693,288.0961,0,U,68359,999,761,.10882566E-3,.515E-5,0
RASSVET-3 1,2026-061A,2026-05-13T04:43:19.466112,15.88809013,.00100348,82.3029,51.6268,233.3691,126.6658,0,U,68360,999,801,.37633955E-3,.106192E-2,.2776854E-5
RASSVET-3 2,2026-061B,2026-05-13T04:37:17.774976,15.91350734,.00160992,82.2969,51.4679,221.1571,138.8489,0,U,68361,999,802,.39431851E-3,.127352E-2,.4664697E-5
RASSVET-3 3,2026-061C,2026-05-13T01:22:26.406912,15.78324375,.00094447,82.2960,51.7596,217.2551,142.8061,0,U,68362,999,799,.33403883E-3,.57754E-3,0
RASSVET-3 4,2026-061D,2026-05-13T01:14:52.658304,16.01049697,.00189047,82.2962,51.4267,218.5382,141.4547,0,U,68363,999,801,.42547433E-3,.234028E-2,.21470731E-4
RASSVET-3 5,2026-061E,2026-05-13T04:23:42.843264,15.66839526,.000079,82.2960,51.9479,322.0085,38.1119,0,U,68364,999,799,.22328231E-3,.23619E-3,0
RASSVET-3 6,2026-061F,2026-05-13T00:29:11.846400,15.69034658,.00096668,82.2969,52.0365,100.5177,259.7174,0,U,68365,999,797,.30315794E-3,.35169E-3,0
RASSVET-3 7,2026-061G,2026-05-13T04:33:49.654656,15.79987289,.00070675,82.2959,51.6338,218.4976,141.5788,0,U,68366,999,801,.34106957E-3,.635E-3,0
RASSVET-3 8,2026-061H,2026-05-13T04:50:53.512800,15.88128673,.00101313,82.2970,51.4828,220.3595,139.6926,0,U,68367,999,802,.21506637E-3,.58834E-3,.72527E-7
RASSVET-3 9,2026-061J,2026-05-13T05:03:24.696000,15.84248055,.00080063,82.2973,51.6588,219.9760,140.0920,0,U,68368,999,801,.37212078E-3,.84617E-3,0
RASSVET-3 10,2026-061K,2026-05-13T05:47:00.512160,15.91663779,.00120697,82.2985,51.3716,217.4912,142.5520,0,U,68369,999,803,.38743711E-3,.126494E-2,.4603931E-5
RASSVET-3 11,2026-061L,2026-05-13T05:30:07.371072,15.91493096,.00051178,82.3132,51.3352,40.8406,319.3249,0,U,68370,999,803,.421462E-3,.135623E-2,.5445338E-5
RASSVET-3 12,2026-061M,2026-05-13T03:55:16.269600,15.72510759,.00081785,82.2976,51.7520,267.7380,92.2946,0,U,68371,999,800,.31855421E-3,.42699E-3,0
RASSVET-3 13,2026-061N,2026-05-13T04:32:27.807072,15.65823616,.0000282,82.2989,51.9592,104.9662,255.1628,0,U,68372,999,799,.28587626E-3,.29042E-3,0
RASSVET-3 14,2026-061P,2026-05-13T02:01:17.000256,15.89631117,.00124731,82.2976,51.6382,215.8051,144.2386,0,U,68373,999,800,.39511632E-3,.116416E-2,.3611426E-5
RASSVET-3 15,2026-061Q,2026-05-13T04:47:21.202944,15.85997822,.00088375,82.2980,51.6466,216.0009,144.0667,0,U,68374,999,801,.21417385E-3,.52822E-3,0
RASSVET-3 16,2026-061R,2026-05-13T04:24:55.910016,15.82336921,.00125686,82.2968,51.9447,230.5649,129.4507,0,U,68375,999,799,.34568968E-3,.72028E-3,0
SUPERVIEW NEO-2 05,2026-062A,2026-05-12T11:06:52.329888,15.19720343,.0001717,97.4388,140.2797,86.4340,273.7092,0,U,68377,999,722,.62402E-4,.1265E-4,0
SUPERVIEW NEO-2 06,2026-062B,2026-05-12T11:06:52.259040,15.19720444,.0001425,97.4388,140.2847,107.8673,252.2717,0,U,68378,999,722,.56687E-4,.1143E-4,0
STARLINK-36296,2026-063A,2026-05-13T06:00:02.000160,15.76525806,.0001229,97.2851,276.4563,65.5154,146.4668,0,U,68380,999,596,-.12405468E-3,-.19699E-3,0
STARLINK-37111,2026-063B,2026-05-13T06:00:02.000160,15.38632350,.00019983,97.2851,275.9345,69.4332,355.4363,0,U,68381,999,601,-.63483341E-1,-.2175168E-1,0
