CENTISPACE-2 S1         
1 68350U 26060A   26133.31067207  .00000278  00000+0  73862-4 0  9993
2 68350  54.9792 178.2900 0013054  35.4256 324.7607 14.73600156  7622
CENTISPACE-2 S2         
1 68351U 26060B   26133.17781953  .00000271  00000+0  73282-4 0  9998
2 68351  54.9798 178.8578 0012076  32.9894 327.1855 14.73273525  7605
CENTISPACE-2 S3         
1 68352U 26060C   26133.30287256 -.00000091  00000+0  17657-4 0  9996
2 68352  54.9782 178.2443 0012185  57.4541 302.7633 14.73815227  7622
CENTISPACE-2 S4         
1 68353U 26060D   26133.30175816 -.00000093  00000+0  17346-4 0  9992
2 68353  54.9807 178.2491 0012249  70.3256 289.9064 14.73701351  7628
CENTISPACE-2 S5         
1 68354U 26060E   26133.29312859  .00000051  00000+0  39177-4 0  9990
2 68354  54.9738 178.1668 0014128  67.9362 292.3136 14.74016572  7628
CENTISPACE-2 S6         
1 68355U 26060F   26133.30489307 -.00000089  00000+0  17942-4 0  9994
2 68355  54.9726 178.2303 0012027  59.4577 300.7607 14.73596418  7621
CENTISPACE-2 S7         
1 68356U 26060G   26133.29200943 -.00000120  00000+0  13395-4 0  9994
2 68356  54.9848 178.2129 0013828  64.7457 295.4974 14.73987068  7621
CENTISPACE-2 S8         
1 68357U 26060H   26133.28899671  .00000540  00000+0  11212-3 0  9996
2 68357  54.9840 178.1929 0013928  63.2837 296.9586 14.74290482  7621
CENTISPACE-2 S9         
1 68358U 26060J   26133.30144381 -.00000091  00000+0  17670-4 0  9998
2 68358  54.9784 178.2381 0012495  63.8475 296.3808 14.73567647  7624
CENTISPACE-2 S10        
1 68359U 26060K   26133.22172030  .00000515  00000+0  10883-3 0  9990
2 68359  54.9769 178.4369 0015186  72.1693 288.0961 14.74090325  7613
RASSVET-3 1             
1 68360U 26061A   26133.19675308  .00106192  27769-5  37634-3 0  9993
2 68360  82.3029  51.6268 0010034 233.3691 126.6658 15.88809013  8018
RASSVET-3 2             
1 68361U 26061B   26133.19256684  .00127352  46647-5  39432-3 0  9991
2 68361  82.2969  51.4679 0016099 221.1571 138.8489 15.91350734  8027
RASSVET-3 3             
1 68362U 26061C   26133.05725008  .00057754  00000+0  33404-3 0  9996
2 68362  82.2960  51.7596 0009444 217.2551 142.8061 15.78324375  7993
RASSVET-3 4             
1 68363U 26061D   26133.05199836  .00234028  21471-4  42547-3 0  9990
2 68363  82.2962  51.4267 0018904 218.5382 141.4547 16.01049697  8011
RASSVET-3 5             
1 68364U 26061E   26133.18313476  .00023619  00000+0  22328-3 0  9990
2 68364  82.2960  51.9479 0000790 322.0085  38.1119 15.66839526  7996
RASSVET-3 6             
1 68365U 26061F   26133.02027600  .00035169  00000+0  30316-3 0  9994
2 68365  82.2969  52.0365 0009666 100.5177 259.7174 15.69034658  7970
RASSVET-3 7             
1 68366U 26061G   26133.19015804  .00063500  00000+0  34107-3 0  9998
2 68366  82.2959  51.6338 0007067 218.4976 141.5788 15.79987289  8017
RASSVET-3 8             
1 68367U 26061H   26133.20200825  .00058834  72527-7  21507-3 0  9995
2 68367  82.2970  51.4828 0010131 220.3595 139.6926 15.88128673  8025
RASSVET-3 9             
1 68368U 26061J   26133.21070250  .00084617  00000+0  37212-3 0  9991
2 68368  82.2973  51.6588 0008006 219.9760 140.0920 15.84248055  8012
RASSVET-3 10            
1 68369U 26061K   26133.24097815  .00126494  46039-5  38744-3 0  9990
2 68369  82.2985  51.3716 0012069 217.4912 142.5520 15.91663779  8039
RASSVET-3 11            
1 68370U 26061L   26133.22925198  .00135623  54453-5  42146-3 0  9998
2 68370  82.3132  51.3352 0005117  40.8406 319.3249 15.91493096  8039
RASSVET-3 12            
1 68371U 26061M   26133.16338275  .00042699  00000+0  31855-3 0  9994
2 68371  82.2976  51.7520 0008178 267.7380  92.2946 15.72510759  8000
RASSVET-3 13            
1 68372U 26061N   26133.18921073  .00029042  00000+0  28588-3 0  9997
2 68372  82.2989  51.9592 0000282 104.9662 255.1628 15.65823616  7994
RASSVET-3 14            
1 68373U 26061P   26133.08422454  .00116416  36114-5  39512-3 0  9998
2 68373  82.2976  51.6382 0012473 215.8051 144.2386 15.89631117  8005
RASSVET-3 15            
1 68374U 26061Q   26133.19955096  .00052822  00000+0  21417-3 0  9998
2 68374  82.2980  51.6466 0008837 216.0009 144.0667 15.85997822  8014
RASSVET-3 16            
1 68375U 26061R   26133.18398044  .00072028  00000+0  34569-3 0  9994
2 68375  82.2968  51.9447 0012568 230.5649 129.4507 15.82336921  7990
SUPERVIEW NEO-2 05      
1 68377U 26062A   26132.46310567  .00001265  00000+0  62402-4 0  9994
2 68377  97.4388 140.2797 0001717  86.4340 273.7092 15.19720343  7229
SUPERVIEW NEO-2 06      
1 68378U 26062B   26132.46310485  .00001143  00000+0  56687-4 0  9997
2 68378  97.4388 140.2847 0001425 107.8673 252.2717 15.19720444  7227
STARLINK-36296          
1 68380U 26063A   26133.25002315 -.00019699  00000+0 -12405-3 0  9995
2 68380  97.2851 276.4563 0001229  65.5154 146.4668 15.76525806  5962
STARLINK-37111          
1 68381U 26063B   26133.25002315 -.02175168  00000+0 -63483-1 0  9992
2 68381  97.2851 275.9345 0001998  69.4332 355.4363 15.38632350  6011
